#aV2007  4 10  0  0   .00000000      96 DD+AD WGS84 FIT  NGA
## 1422 172800.00000000   900.00000000 54200  .0000000000000
+   30     1  2  3  4  5  6  7  8  9 10 11 12 13 14 16 17 18
+         19 20 21 22 23 24 25 26 27 28 29 30 31  0  0  0  0
+          0  0  0  0  0  0  0  0  0  0  0  0  0  0  0  0  0
+          0  0  0  0  0  0  0  0  0  0  0  0  0  0  0  0  0
+          0  0  0  0  0  0  0  0  0  0  0  0  0  0  0  0  0
++         0  0  0  0  0  0  0  0  0  0  0  0  0  0  0  0  0
++         0  0  0  0  0  0  0  0  0  0  0  0  0  0  0  0  0
++         0  0  0  0  0  0  0  0  0  0  0  0  0  0  0  0  0
++         0  0  0  0  0  0  0  0  0  0  0  0  0  0  0  0  0
++         0  0  0  0  0  0  0  0  0  0  0  0  0  0  0  0  0
%c cc cc ccc ccc cccc cccc cccc cccc ccccc ccccc ccccc ccccc
%c cc cc ccc ccc cccc cccc cccc cccc ccccc ccccc ccccc ccccc
%f  0.0000000  0.000000000  0.00000000000  0.000000000000000
%f  0.0000000  0.000000000  0.00000000000  0.000000000000000
%i    0    0    0    0      0      0      0      0         0
%i    0    0    0    0      0      0      0      0         0
/*      NGA, ST. LOUIS,MO.                                  
/*   EPHEMERIS COMPUTED FROM  3 DAYS OF DATA                
/* CCCCCCCCCCCCCCCCCCCCCCCCCCCCCCCCCCCCCCCCCCCCCCCCCCCCCCCCC
/* CCCCCCCCCCCCCCCCCCCCCCCCCCCCCCCCCCCCCCCCCCCCCCCCCCCCCCCCC
*  2007  4 10 23 30   .00000000                                                 
P  1 -11476.566994 -13473.723238  20029.413606    119.574555                    
V  1  24899.181059    -31.015921  14333.350255       .026835                    
P  2  13969.661814  22764.289692   -107.743484     97.853601                    
V  2  -2652.721898   1466.639862  31266.357274       .031981                    
P  3 -15658.495083 -11930.414274 -18180.352976     40.803277                    
V  3  22313.230861  -4430.171059 -16165.024185       .056275                    
P  4   3547.316444  23216.432245  11982.411498     10.077236                    
V  4 -10399.342332 -11860.532824  26269.512179       .006541                    
P  5  17549.104821  -5419.710888  18903.519716     35.134738                    
V  5  -8421.790582  23193.444095  14444.448406      -.064241                    
P  6  24794.083132  -6476.114068  -6895.298902    134.964083                    
V  6   9198.685161   2964.700777  29441.726761       .184839                    
P  7  22248.717120  -9634.396597 -10588.182213    350.224054                    
V  7  14185.384143   2035.810834  27005.478873      -.151524                    
P  8  -5260.899599  17502.188615 -19223.233479   -103.219028                    
V  8 -12733.604633 -20707.439730 -15885.069810      -.014551                    
P  9  19122.723949  11104.787064  14290.966915     65.477655                    
V  9   8755.383368  17062.431324 -23774.947891       .016550                    
P 10   6475.905070  16181.030438 -20057.585080    100.121277                    
V 10 -13780.580267  21240.088891  13074.153103       .006598                    
P 11 -21223.842667  -6862.665840  14515.827868     12.915106                    
V 11  -9658.512497 -16377.489455 -21411.977749       .011650                    
P 12  17084.060215  -1536.448915  20375.299282    -43.969348                    
V 12 -11466.199457  22954.091060  11458.263228      -.000164                    
P 13 -23212.444387   6797.019124 -11017.892054    161.836471                    
V 13 -13785.241713  -1739.570447  28267.135310       .036551                    
P 14   6225.190289 -14229.472074  21616.208825     15.294810                    
V 14  27189.153504    494.159751  -7599.192542       .015895                    
P 16  -1393.942055 -20660.802646 -16463.157270    138.670352                    
V 16  12122.795075 -17399.854148  20839.549039       .032322                    
P 17  -8385.968676  14513.644940  20580.631492     72.150635                    
V 17 -26160.330632   -640.576510 -10335.404039      -.012904                    
P 18  16871.499298 -19272.405559  -6199.703755   -251.893828                    
V 18  -1470.736976   8616.725818 -30469.000452       .005624                    
P 19 -22943.842144  -8396.490699 -10450.955825     23.534400                    
V 19  13483.936783  -1884.162971 -27719.957535       .037089                    
P 20 -17448.231946   2904.780369  19695.814947    -23.570376                    
V 20  10821.463607 -22878.312285  12934.501113      -.003030                    
P 21  11590.482289 -10873.787006 -21111.450906     75.153806                    
V 21  13972.951306  23363.647596  -4907.240192       .006411                    
P 22  10817.101963 -23819.595011   4665.093605    176.294525                    
V 22   5622.420472  -3280.941540 -30813.960746       .021742                    
P 23 -26658.001652    712.929302   -331.968664    159.319976                    
V 23   -362.047118  -2333.235351  31838.736942       .022242                    
P 24  17083.938075   2127.294608 -19937.320566     91.810065                    
V 24  11040.184855  23437.440872  12127.354015       .030286                    
P 25 -19751.248737 -12897.316240 -11684.779521    241.332011                    
V 25  -7087.475137 -14027.498054  26738.149830      -.269476                    
P 26  21673.330374   9065.227756 -13369.217594   -134.721164                    
V 26 -16008.847906    677.182550 -25792.426291      -.198896                    
P 27 -11183.440355   9892.584394 -21314.494233    104.306612                    
V 27 -16521.501647 -23367.182262  -2352.726880       .022808                    
P 28 -12693.082544  23103.214293    952.554425      3.495657                    
V 28  -3094.305064   -849.628930 -31966.425792      -.008485                    
P 29  18490.795607  10226.475209 -16105.698250      1.515442                    
V 29 -20616.387410   1565.804274 -22026.410681       .004437                    
P 30  17987.220132 -13260.669234  13962.094291     30.627542                    
V 30  -5884.811250  17561.556912  23858.053738       .011397                    
P 31  -5275.842013 -23591.126618  11127.049037     19.135810                    
V 31   9255.346419  10580.155798  27379.219667       .009469                    
EOF
